STARLINK-31041          
1 58537U 23192G   26005.38431533  .00002250  00000+0  88090-4 0  9995
2 58537  53.1615 356.7428 0001744  88.5343 271.5858 15.30200874116298
STARLINK-31014          
1 58538U 23192H   26005.39487235  .00000876  00000+0  41690-4 0  9994
2 58538  53.1605 356.8104 0001073  61.6900 298.4209 15.30199960116297
STARLINK-31055          
1 58539U 23192J   26005.26740835  .00000361  00000+0  24304-4 0  9991
2 58539  53.1608 357.4367 0000960  98.9950 261.1160 15.30198682116272
STARLINK-31019          
1 58540U 23192K   26005.38854591  .00015163  00000+0  52270-3 0  9999
2 58540  53.1600 356.7710 0001211  78.9752 281.1385 15.30220833116295
STARLINK-31045          
1 58541U 23192L   26005.59520143 -.00001558  00000+0 -40501-4 0  9996
2 58541  53.1593  72.6511 0001269  81.9959 278.1186 15.30180733115238
STARLINK-31030          
1 58542U 23192M   26005.27057594 -.00000444  00000+0 -28803-5 0  9992
2 58542  53.1623 357.4554 0000979  93.2625 266.8487 15.30198773116273
STARLINK-31049          
1 58543U 23192N   26005.27376861 -.00004278  00000+0 -13253-3 0  9994
2 58543  53.1633 357.4757 0001321  94.1235 265.9917 15.30167697116278
STARLINK-31048          
1 58544U 23192P   26005.36531421  .00000779  00000+0  38407-4 0  9999
2 58544  53.1630 356.5852 0001288  96.2559 263.8588 15.30202058116290
STARLINK-31057          
1 58545U 23192Q   26005.40753705 -.00001318  00000+0 -32375-4 0  9996
2 58545  53.1634 356.8875 0001860  90.9101 269.2113 15.30201894116294
STARLINK-31050          
1 58546U 23192R   26005.41069898  .00000338  00000+0  23525-4 0  9997
2 58546  53.1611 356.9062 0000988  93.0001 267.1113 15.30199991116293
STARLINK-31063          
1 58547U 23192S   26005.35485234  .00003147  00000+0  11836-3 0  9999
2 58547  53.1619 346.5851 0001331 107.0013 253.1134 15.30194755116432
STARLINK-31016          
1 58548U 23192T   26005.36848107  .00002393  00000+0  92908-4 0  9995
2 58548  53.1627 356.6036 0001266  83.4385 276.6760 15.30197876116291
STARLINK-31053          
1 58549U 23192U   26005.34855088  .00000469  00000+0  27974-4 0  9993
2 58549  53.1625 357.2304 0001134 100.2794 259.8335 15.30197051116286
STARLINK-31056          
1 58550U 23192V   26005.37165477  .00001087  00000+0  48830-4 0  9995
2 58550  53.1620 356.6673 0001246  89.2211 270.8932 15.30198265116294
STARLINK-30999          
1 58551U 23192W   26005.33174311  .00008370  00000+0  29472-3 0  9991
2 58551  53.1629 347.0687 0001555  84.3108 275.8070 15.30163256116422
STARLINK-31046          
1 58552U 23192X   26005.35593910  .00000778  00000+0  38386-4 0  9993
2 58552  53.1616 357.2746 0001246  91.6172 268.4972 15.30194264116283
