[{"OBJECT_NAME":"STARLINK-31041","OBJECT_ID":"2023-192G","EPOCH":"2026-01-05T09:13:24.844512","MEAN_MOTION":15.30200874,"ECCENTRICITY":0.00017442,"INCLINATION":53.1615,"RA_OF_ASC_NODE":356.7428,"ARG_OF_PERICENTER":88.5343,"MEAN_ANOMALY":271.5858,"EPHEMERIS_TYPE":0,"CLASSIFICATION_TYPE":"U","NORAD_CAT_ID":58537,"ELEMENT_SET_NO":999,"REV_AT_EPOCH":11629,"BSTAR":8.809035e-5,"MEAN_MOTION_DOT":2.25e-5,"MEAN_MOTION_DDOT":0},{"OBJECT_NAME":"STARLINK-31014","OBJECT_ID":"2023-192H","EPOCH":"2026-01-05T09:28:36.971040","MEAN_MOTION":15.3019996,"ECCENTRICITY":0.00010736,"INCLINATION":53.1605,"RA_OF_ASC_NODE":356.8104,"ARG_OF_PERICENTER":61.69,"MEAN_ANOMALY":298.4209,"EPHEMERIS_TYPE":0,"CLASSIFICATION_TYPE":"U","NORAD_CAT_ID":58538,"ELEMENT_SET_NO":999,"REV_AT_EPOCH":11629,"BSTAR":4.1690127e-5,"MEAN_MOTION_DOT":8.76e-6,"MEAN_MOTION_DDOT":0},{"OBJECT_NAME":"STARLINK-31055","OBJECT_ID":"2023-192J","EPOCH":"2026-01-05T06:25:04.081440","MEAN_MOTION":15.30198682,"ECCENTRICITY":9.6e-5,"INCLINATION":53.1608,"RA_OF_ASC_NODE":357.4367,"ARG_OF_PERICENTER":98.995,"MEAN_ANOMALY":261.116,"EPHEMERIS_TYPE":0,"CLASSIFICATION_TYPE":"U","NORAD_CAT_ID":58539,"ELEMENT_SET_NO":999,"REV_AT_EPOCH":11627,"BSTAR":2.4304e-5,"MEAN_MOTION_DOT":3.61e-6,"MEAN_MOTION_DDOT":0},{"OBJECT_NAME":"STARLINK-31019","OBJECT_ID":"2023-192K","EPOCH":"2026-01-05T09:19:30.366624","MEAN_MOTION":15.30220833,"ECCENTRICITY":0.00012119,"INCLINATION":53.16,"RA_OF_ASC_NODE":356.771,"ARG_OF_PERICENTER":78.9752,"MEAN_ANOMALY":281.1385,"EPHEMERIS_TYPE":0,"CLASSIFICATION_TYPE":"U","NORAD_CAT_ID":58540,"ELEMENT_SET_NO":999,"REV_AT_EPOCH":11629,"BSTAR":0.00052270131,"MEAN_MOTION_DOT":0.00015163,"MEAN_MOTION_DDOT":0},{"OBJECT_NAME":"STARLINK-31045","OBJECT_ID":"2023-192L","EPOCH":"2026-01-05T14:17:05.403552","MEAN_MOTION":15.30180733,"ECCENTRICITY":0.00012696,"INCLINATION":53.1593,"RA_OF_ASC_NODE":72.6511,"ARG_OF_PERICENTER":81.9959,"MEAN_ANOMALY":278.1186,"EPHEMERIS_TYPE":0,"CLASSIFICATION_TYPE":"U","NORAD_CAT_ID":58541,"ELEMENT_SET_NO":999,"REV_AT_EPOCH":11523,"BSTAR":-4.0500805e-5,"MEAN_MOTION_DOT":-1.558e-5,"MEAN_MOTION_DDOT":0},{"OBJECT_NAME":"STARLINK-31030","OBJECT_ID":"2023-192M","EPOCH":"2026-01-05T06:29:37.761216","MEAN_MOTION":15.30198773,"ECCENTRICITY":9.79e-5,"INCLINATION":53.1623,"RA_OF_ASC_NODE":357.4554,"ARG_OF_PERICENTER":93.2625,"MEAN_ANOMALY":266.8487,"EPHEMERIS_TYPE":0,"CLASSIFICATION_TYPE":"U","NORAD_CAT_ID":58542,"ELEMENT_SET_NO":999,"REV_AT_EPOCH":11627,"BSTAR":-2.8803e-6,"MEAN_MOTION_DOT":-4.44e-6,"MEAN_MOTION_DDOT":0},{"OBJECT_NAME":"STARLINK-31049","OBJECT_ID":"2023-192N","EPOCH":"2026-01-05T06:34:13.607904","MEAN_MOTION":15.30167697,"ECCENTRICITY":0.0001321,"INCLINATION":53.1633,"RA_OF_ASC_NODE":357.4757,"ARG_OF_PERICENTER":94.1235,"MEAN_ANOMALY":265.9917,"EPHEMERIS_TYPE":0,"CLASSIFICATION_TYPE":"U","NORAD_CAT_ID":58543,"ELEMENT_SET_NO":999,"REV_AT_EPOCH":11627,"BSTAR":-0.00013253,"MEAN_MOTION_DOT":-4.278e-5,"MEAN_MOTION_DDOT":0},{"OBJECT_NAME":"STARLINK-31048","OBJECT_ID":"2023-192P","EPOCH":"2026-01-05T08:46:03.147744","MEAN_MOTION":15.30202058,"ECCENTRICITY":0.00012881,"INCLINATION":53.163,"RA_OF_ASC_NODE":356.5852,"ARG_OF_PERICENTER":96.2559,"MEAN_ANOMALY":263.8588,"EPHEMERIS_TYPE":0,"CLASSIFICATION_TYPE":"U","NORAD_CAT_ID":58544,"ELEMENT_SET_NO":999,"REV_AT_EPOCH":11629,"BSTAR":3.8407338e-5,"MEAN_MOTION_DOT":7.79e-6,"MEAN_MOTION_DDOT":0},{"OBJECT_NAME":"STARLINK-31057","OBJECT_ID":"2023-192Q","EPOCH":"2026-01-05T09:46:51.201120","MEAN_MOTION":15.30201894,"ECCENTRICITY":0.00018604,"INCLINATION":53.1634,"RA_OF_ASC_NODE":356.8875,"ARG_OF_PERICENTER":90.9101,"MEAN_ANOMALY":269.2113,"EPHEMERIS_TYPE":0,"CLASSIFICATION_TYPE":"U","NORAD_CAT_ID":58545,"ELEMENT_SET_NO":999,"REV_AT_EPOCH":11629,"BSTAR":-3.2375478e-5,"MEAN_MOTION_DOT":-1.318e-5,"MEAN_MOTION_DDOT":0},{"OBJECT_NAME":"STARLINK-31050","OBJECT_ID":"2023-192R","EPOCH":"2026-01-05T09:51:24.391872","MEAN_MOTION":15.30199991,"ECCENTRICITY":9.881e-5,"INCLINATION":53.1611,"RA_OF_ASC_NODE":356.9062,"ARG_OF_PERICENTER":93.0001,"MEAN_ANOMALY":267.1113,"EPHEMERIS_TYPE":0,"CLASSIFICATION_TYPE":"U","NORAD_CAT_ID":58546,"ELEMENT_SET_NO":999,"REV_AT_EPOCH":11629,"BSTAR":2.3524991e-5,"MEAN_MOTION_DOT":3.38e-6,"MEAN_MOTION_DDOT":0},{"OBJECT_NAME":"STARLINK-31063","OBJECT_ID":"2023-192S","EPOCH":"2026-01-05T08:30:59.242176","MEAN_MOTION":15.30194755,"ECCENTRICITY":0.00013315,"INCLINATION":53.1619,"RA_OF_ASC_NODE":346.5851,"ARG_OF_PERICENTER":107.0013,"MEAN_ANOMALY":253.1134,"EPHEMERIS_TYPE":0,"CLASSIFICATION_TYPE":"U","NORAD_CAT_ID":58547,"ELEMENT_SET_NO":999,"REV_AT_EPOCH":11643,"BSTAR":0.00011836074,"MEAN_MOTION_DOT":3.147e-5,"MEAN_MOTION_DDOT":0},{"OBJECT_NAME":"STARLINK-31016","OBJECT_ID":"2023-192T","EPOCH":"2026-01-05T08:50:36.764448","MEAN_MOTION":15.30197876,"ECCENTRICITY":0.0001266,"INCLINATION":53.1627,"RA_OF_ASC_NODE":356.6036,"ARG_OF_PERICENTER":83.4385,"MEAN_ANOMALY":276.676,"EPHEMERIS_TYPE":0,"CLASSIFICATION_TYPE":"U","NORAD_CAT_ID":58548,"ELEMENT_SET_NO":999,"REV_AT_EPOCH":11629,"BSTAR":9.2908105e-5,"MEAN_MOTION_DOT":2.393e-5,"MEAN_MOTION_DDOT":0},{"OBJECT_NAME":"STARLINK-31053","OBJECT_ID":"2023-192U","EPOCH":"2026-01-05T08:21:54.796032","MEAN_MOTION":15.30197051,"ECCENTRICITY":0.00011348,"INCLINATION":53.1625,"RA_OF_ASC_NODE":357.2304,"ARG_OF_PERICENTER":100.2794,"MEAN_ANOMALY":259.8335,"EPHEMERIS_TYPE":0,"CLASSIFICATION_TYPE":"U","NORAD_CAT_ID":58549,"ELEMENT_SET_NO":999,"REV_AT_EPOCH":11628,"BSTAR":2.7974189e-5,"MEAN_MOTION_DOT":4.69e-6,"MEAN_MOTION_DDOT":0},{"OBJECT_NAME":"STARLINK-31056","OBJECT_ID":"2023-192V","EPOCH":"2026-01-05T08:55:10.972128","MEAN_MOTION":15.30198265,"ECCENTRICITY":0.00012466,"INCLINATION":53.162,"RA_OF_ASC_NODE":356.6673,"ARG_OF_PERICENTER":89.2211,"MEAN_ANOMALY":270.8932,"EPHEMERIS_TYPE":0,"CLASSIFICATION_TYPE":"U","NORAD_CAT_ID":58550,"ELEMENT_SET_NO":999,"REV_AT_EPOCH":11629,"BSTAR":4.8830182e-5,"MEAN_MOTION_DOT":1.087e-5,"MEAN_MOTION_DDOT":0},{"OBJECT_NAME":"STARLINK-30999","OBJECT_ID":"2023-192W","EPOCH":"2026-01-05T07:57:42.604704","MEAN_MOTION":15.30163256,"ECCENTRICITY":0.0001555,"INCLINATION":53.1629,"RA_OF_ASC_NODE":347.0687,"ARG_OF_PERICENTER":84.3108,"MEAN_ANOMALY":275.807,"EPHEMERIS_TYPE":0,"CLASSIFICATION_TYPE":"U","NORAD_CAT_ID":58551,"ELEMENT_SET_NO":999,"REV_AT_EPOCH":11642,"BSTAR":0.00029472344,"MEAN_MOTION_DOT":8.37e-5,"MEAN_MOTION_DDOT":0},{"OBJECT_NAME":"STARLINK-31046","OBJECT_ID":"2023-192X","EPOCH":"2026-01-05T08:32:33.138240","MEAN_MOTION":15.30194264,"ECCENTRICITY":0.00012462,"INCLINATION":53.1616,"RA_OF_ASC_NODE":357.2746,"ARG_OF_PERICENTER":91.6172,"MEAN_ANOMALY":268.4972,"EPHEMERIS_TYPE":0,"CLASSIFICATION_TYPE":"U","NORAD_CAT_ID":58552,"ELEMENT_SET_NO":999,"REV_AT_EPOCH":11628,"BSTAR":3.8385972e-5,"MEAN_MOTION_DOT":7.78e-6,"MEAN_MOTION_DDOT":0}]
